CZ-3A DEB               
1 35551U 07003K   26112.13378623 -.00000448  00000+0 -52115-2 0  9997
2 35551  24.7393 251.1622 7219980 103.4981 339.5492  2.16475802 19842
CZ-3A DEB               
1 35552U 07003L   26113.01731729  .00000884  00000+0  35371-2 0  9993
2 35552  25.8518  73.7294 7410091  99.1604 343.2914  2.02733890129411
CZ-3A DEB               
1 35556U 07003Q   26112.72217613  .00000176  00000+0  79903-3 0  9999
2 35556  25.5275 281.1418 7204377  15.7017 358.1567  2.27135247 14214
CZ-3A DEB               
1 35558U 07003S   26107.24265515 -.00000761  00000+0 -85703-2 0  9992
2 35558  22.2311 159.6283 7474994  79.9700 349.4101  1.91828564 89765
CZ-3A DEB               
1 35563U 07003X   26115.39579348 -.00000080  00000+0  15534-2 0  9993
2 35563  21.7351 182.4556 7477455  63.8991   2.2265  1.89939127 15078
ASIASAT 5               
1 35696U 09042A   26114.80270286 -.00000321  00000+0  00000+0 0  9996
2 35696   0.0610  87.0873 0001673 309.2096 205.9919  1.00268854 61171
JCSAT-12 (JCSAT-RA)     
1 35755U 09044A   26115.66453306  .00000000  00000+0  00000+0 0  9998
2 35755   0.0116 249.8606 0000412 163.1762 171.9285  1.00266711 61085
OPTUS D3                
1 35756U 09044B   26115.88321939 -.00000161  00000+0  00000+0 0  9998
2 35756   0.8570 270.2154 0003118 119.8670 297.8997  1.00270794 61046
NIMIQ 5                 
1 35873U 09050A   26115.86780985  .00000000  00000+0  00000+0 0  9994
2 35873   0.0218 108.1624 0003010 295.8677  49.5663  1.00268867 60826
AMAZONAS 2              
1 35942U 09054A   26115.87336475 -.00000295  00000+0  00000+0 0  9994
2 35942   1.6808  83.6760 0003393 303.9428  79.8770  1.00273586 60663
COMSATBW-1              
1 35943U 09054B   26115.97905775  .00000000  00000+0  00000+0 0  9994
2 35943   0.0187 107.9387 0003594 295.8941 225.6245  1.00269872 60788
NSS-12                  
1 36032U 09058A   26115.97623211  .00000058  00000+0  00000+0 0  9993
2 36032   0.0613  61.9212 0005045 309.9464 250.5525  1.00271946 60398
THOR 6                  
1 36033U 09058B   26115.92343288 -.00000023  00000+0  00000+0 0  9995
2 36033   0.0386  73.7247 0001747 319.4232 152.3792  1.00272061 60483
INTELSAT 14 (IS-14)     
1 36097U 09064A   26115.91467951 -.00000287  00000+0  00000+0 0  9997
2 36097   0.0104  63.2911 0002488 331.3332 103.5822  1.00272425 60082
ATLAS 5 CENTAUR R/B     
1 36098U 09064B   26115.83702586 -.00000047  00000+0  00000+0 0  9999
2 36098  22.0397  76.0457 5628936 222.5125  76.0941  1.76307871105764
EUTELSAT 36B            
1 36101U 09065A   26115.97246073  .00000099  00000+0  00000+0 0  9990
2 36101   0.3609  79.8312 0005843 313.5024 221.2393  1.00269429 60189
INTELSAT 15 (IS-15)     
1 36106U 09067A   26115.94041962 -.00000199  00000+0  00000+0 0  9996
2 36106   0.0293  92.3225 0002234 301.7107 243.6214  1.00271873 40707
